OBJECT_NAME,OBJECT_ID,EPOCH,MEAN_MOTION,ECCENTRICITY,INCLINATION,RA_OF_ASC_NODE,ARG_OF_PERICENTER,MEAN_ANOMALY,EPHEMERIS_TYPE,CLASSIFICATION_TYPE,NORAD_CAT_ID,ELEMENT_SET_NO,REV_AT_EPOCH,BSTAR,MEAN_MOTION_DOT,MEAN_MOTION_DDOT
FLOCK 4G-28,2025-009AB,2026-07-21T11:21:36.891360,15.35348637,.000263,97.4016,287.1630,149.1089,211.0310,0,U,62634,999,8434,.20808979E-3,.7063E-4,0
GARAI-A,2025-009AC,2026-07-21T13:20:23.241120,15.18713482,.00026473,97.3953,281.5972,170.5392,189.5893,0,U,62635,999,8399,.39748554E-3,.8186E-4,0
FLOCK 4G-24,2025-009AE,2026-07-21T05:05:37.748544,15.30441000,.00041556,97.4013,284.3759,150.2027,209.9451,0,U,62637,999,8413,.26950237E-3,.7859E-4,0
FLOCK 4G-3,2025-009AG,2026-07-21T12:49:30.931392,15.29952257,.00037894,97.4015,284.4002,153.4312,206.7123,0,U,62639,999,8415,.30011383E-3,.8629E-4,0
NUSAT-45 (UZMASAT-1),2025-009AH,2026-07-21T04:41:44.180736,15.29873248,.00022788,97.3581,283.0864,161.6428,198.4895,0,U,62640,999,8412,.22449052E-3,.6418E-4,0
FLOCK 4G-27,2025-009AJ,2026-07-21T11:43:55.369056,15.29882473,.00031063,97.3921,283.6948,154.6976,205.4417,0,U,62641,999,8414,.28990529E-3,.8315E-4,0
FLOCK 4G-29,2025-009AK,2026-07-21T05:05:48.298848,15.29918453,.00039057,97.4008,284.0390,150.9022,209.2437,0,U,62642,999,8410,.19373691E-3,.5536E-4,0
ANSER LEADER-S,2025-009AM,2026-07-21T14:39:32.578272,15.50885652,.00043459,97.3992,290.1195,176.6878,183.4403,0,U,62644,999,8453,.92228207E-3,.5353E-3,0
FLOCK 4G-22,2025-009AN,2026-07-21T11:49:36.373440,15.29852580,.00034544,97.3995,284.3504,147.2003,212.9453,0,U,62645,999,8416,.34466879E-3,.9892E-4,0
FLOCK 4G-25,2025-009AP,2026-07-21T11:10:23.658240,15.30084521,.00029447,97.4002,284.4049,149.0836,211.0578,0,U,62646,999,8416,.27102343E-3,.7816E-4,0
FLOCK 4G-23,2025-009AQ,2026-07-21T11:40:38.650944,15.35103312,.00035521,97.3913,284.1909,159.0153,201.1236,0,U,62647,999,8418,.12714283E-2,.43432E-3,0
LIME,2025-009AR,2026-07-21T04:56:54.326112,15.31502334,.00017172,97.3939,284.3902,166.0707,194.0582,0,U,62648,999,8417,.25889116E-3,.7799E-4,0
AE1C,2025-009AS,2026-07-21T11:24:58.871232,15.47508360,.00031682,97.4017,290.8060,164.7864,195.3482,0,U,62649,999,8458,.70562309E-3,.36282E-3,0
FLOCK 4G-34,2025-009AT,2026-07-21T11:18:07.145856,15.29850950,.0002854,97.3952,283.8904,148.8841,211.2569,0,U,62650,999,8415,.26507282E-3,.7588E-4,0
FLOCK 4G-21,2025-009AU,2026-07-21T04:20:54.745152,15.33136017,.0003619,97.3976,284.6367,174.7001,185.4280,0,U,62651,999,8416,.96035686E-3,.30759E-3,0
FLOCK 4G-31,2025-009AV,2026-07-21T04:11:19.537152,15.29654046,.0002417,97.3958,283.5660,147.9955,212.1432,0,U,62652,999,8410,.28069475E-3,.7991E-4,0
PAUSAT-1,2025-009AW,2026-07-21T12:35:37.736448,15.23793482,.00019961,97.3942,281.6869,145.8673,214.2693,0,U,62653,999,8401,.13349562E-3,.3143E-4,0
BRO-16,2025-009AX,2026-07-21T05:17:04.855776,15.24155586,.00025737,97.4048,282.2879,141.5734,218.5687,0,U,62654,999,8398,.10328294E-3,.2442E-4,0
TRANSPORTER-12 OBJECT AY,2025-009AY,2026-07-21T05:16:54.184512,15.42934784,.00030219,97.4022,289.1607,137.9951,222.1529,0,U,62655,999,8444,.47271762E-3,.20731E-3,0
TRANSPORTER-12 OBJECT AZ,2025-009AZ,2026-07-21T04:52:05.855520,15.33753033,.00018465,97.3930,285.3044,151.5376,208.5968,0,U,62656,999,8423,.29895864E-3,.9681E-4,0
TRANSPORTER-12 OBJECT BA,2025-009BA,2026-07-21T04:35:49.280640,15.29483746,.0003009,97.3937,283.7061,132.3063,227.8433,0,U,62657,999,8412,.22609107E-3,.6387E-4,0
TROLL,2025-009BB,2026-07-21T05:02:39.274656,15.30683705,.00009894,97.3880,283.8973,154.4758,205.6532,0,U,62658,999,13865,.23688124E-3,.6949E-4,0
FLOCK 4G-4,2025-009BC,2026-07-21T04:50:48.556032,15.32410678,.00051796,97.3927,283.4272,173.5615,186.5694,0,U,62659,999,14171,.9312117E-3,.29152E-3,0
FLOCK 4G-6,2025-009BD,2026-07-21T03:53:31.462944,15.30042459,.00035293,97.3929,283.4071,180.8966,179.2269,0,U,62660,999,14169,.243924E-3,.7018E-4,0
FLOCK 4G-2,2025-009BE,2026-07-21T11:33:04.830624,15.30410238,.0004371,97.3996,284.3756,180.0952,180.0289,0,U,62661,999,14177,.32231985E-3,.9407E-4,0
FLOCK 4G-5,2025-009BG,2026-07-21T05:05:53.536416,15.30973730,.00040051,97.4016,284.5143,163.6517,196.4854,0,U,62663,999,8414,.24055987E-3,.7123E-4,0
LYRA-1,2025-009BH,2026-07-21T10:51:47.681280,15.19397244,.00102191,97.3960,276.3283,79.6795,280.5591,0,U,62664,999,8362,.38347997E-3,.8063E-4,0
JAY-D2,2025-009BJ,2026-07-21T13:22:51.818016,15.22549243,.00038391,97.3875,280.4679,187.1030,173.0153,0,U,62665,999,8396,.13017949E-3,.2951E-4,0
FLOCK 4G-1,2025-009BK,2026-07-21T04:55:29.908128,15.30266478,.0004612,97.4009,284.0793,178.2221,181.9037,0,U,62666,999,8411,.29189963E-3,.8474E-4,0
FLOCK 4G-14,2025-009BL,2026-07-21T04:08:39.583104,15.29810826,.00048007,97.4013,283.8397,173.8662,186.2638,0,U,62667,999,8409,.27730005E-3,.7933E-4,0
